{"type":"FeatureCollection","features":[{"type":"Feature","properties":{"name":"C;D","kind":"platform","lv":";1;","minLevel":1},"geometry":{"type":"Point","coordinates":[2.3762348,48.8435863]}},{"type":"Feature","properties":{"name":"Voies I et J","kind":"platform","lv":";1;","minLevel":1},"geometry":{"type":"Point","coordinates":[2.3759738,48.8433152]}},{"type":"Feature","properties":{"name":"E;G","kind":"platform","lv":";1;","minLevel":1},"geometry":{"type":"Point","coordinates":[2.3760568,48.8435011]}},{"type":"Feature","properties":{"name":"Voies M et N","kind":"platform","lv":";1;","minLevel":1},"geometry":{"type":"Point","coordinates":[2.3757403,48.8431103]}},{"type":"Feature","properties":{"name":"Espace de correspondance RER & M\u00e9tro","kind":"level","lv":";-2;","minLevel":-2},"geometry":{"type":"Point","coordinates":[2.3738762,48.8436839]}},{"type":"Feature","properties":{"name":"Niveau RER A - Gare de Lyon","kind":"level","lv":";-4;","minLevel":-4},"geometry":{"type":"Point","coordinates":[2.3736309,48.8438953]}},{"type":"Feature","properties":{"name":"Niveau RER D - Gare de Lyon","kind":"level","lv":";-3;","minLevel":-3},"geometry":{"type":"Point","coordinates":[2.3740699,48.8436697]}},{"type":"Feature","properties":{"name":"Starbucks","kind":"room","lv":";1;","minLevel":1},"geometry":{"type":"Point","coordinates":[2.3736543,48.8447197]}},{"type":"Feature","properties":{"name":"Brioche Dor\u00e9e","kind":"room","lv":";1;","minLevel":1},"geometry":{"type":"Point","coordinates":[2.3736834,48.844758]}},{"type":"Feature","properties":{"name":"Sephora","kind":"room","lv":";1;","minLevel":1},"geometry":{"type":"Point","coordinates":[2.3748202,48.844706]}},{"type":"Feature","properties":{"name":"Pharmacie de la Gare TGV Paris-Lyon","kind":"room","lv":";1;","minLevel":1},"geometry":{"type":"Point","coordinates":[2.3754282,48.8443485]}},{"type":"Feature","properties":{"name":"Relay","kind":"room","lv":";1;","minLevel":1},"geometry":{"type":"Point","coordinates":[2.3730855,48.8444636]}},{"type":"Feature","properties":{"name":"Mamma Napoli","kind":"room","lv":";1;","minLevel":1},"geometry":{"type":"Point","coordinates":[2.3735315,48.8450794]}},{"type":"Feature","properties":{"name":"Relay","kind":"room","lv":";1;","minLevel":1},"geometry":{"type":"Point","coordinates":[2.375653,48.8445416]}},{"type":"Feature","properties":{"name":"Marius","kind":"room","lv":";1;","minLevel":1},"geometry":{"type":"Point","coordinates":[2.3732969,48.8448752]}},{"type":"Feature","properties":{"name":"Etam","kind":"room","lv":";0;","minLevel":0},"geometry":{"type":"Point","coordinates":[2.3735512,48.8449211]}},{"type":"Feature","properties":{"name":"Lyre","kind":"room","lv":";0;","minLevel":0},"geometry":{"type":"Point","coordinates":[2.3732417,48.8447168]}},{"type":"Feature","properties":{"name":"Parfois","kind":"room","lv":";0;","minLevel":0},"geometry":{"type":"Point","coordinates":[2.3733803,48.8447731]}},{"type":"Feature","properties":{"name":"Histoire d'Or","kind":"room","lv":";0;","minLevel":0},"geometry":{"type":"Point","coordinates":[2.373507,48.8446567]}},{"type":"Feature","properties":{"name":"Yves Rocher","kind":"room","lv":";0;","minLevel":0},"geometry":{"type":"Point","coordinates":[2.3737109,48.8450374]}},{"type":"Feature","properties":{"name":"McDonald's Originals","kind":"room","lv":";0;","minLevel":0},"geometry":{"type":"Point","coordinates":[2.3760413,48.8445104]}},{"type":"Feature","properties":{"name":"Relay","kind":"room","lv":";0;","minLevel":0},"geometry":{"type":"Point","coordinates":[2.3754625,48.8437673]}},{"type":"Feature","properties":{"name":"SNCF Le Studio","kind":"room","lv":";0;","minLevel":0},"geometry":{"type":"Point","coordinates":[2.376985,48.8444366]}},{"type":"Feature","properties":{"name":"Relay","kind":"room","lv":";0;","minLevel":0},"geometry":{"type":"Point","coordinates":[2.3737503,48.8448509]}},{"type":"Feature","properties":{"name":"Voies 19 et 21","kind":"platform","lv":";1;","minLevel":1},"geometry":{"type":"Point","coordinates":[2.3783667,48.8432602]}},{"type":"Feature","properties":{"name":"Voies 7 et 9","kind":"platform","lv":";1;","minLevel":1},"geometry":{"type":"Point","coordinates":[2.3777411,48.8431498]}},{"type":"Feature","properties":{"name":"Voie 23","kind":"platform","lv":";1;","minLevel":1},"geometry":{"type":"Point","coordinates":[2.3785534,48.8433093]}},{"type":"Feature","properties":{"name":"Voies 11 et 13","kind":"platform","lv":";1;","minLevel":1},"geometry":{"type":"Point","coordinates":[2.3780451,48.8431297]}},{"type":"Feature","properties":{"name":"Petit Bateau","kind":"room","lv":";0;","minLevel":0},"geometry":{"type":"Point","coordinates":[2.3739339,48.8450217]}},{"type":"Feature","properties":{"name":"Pylones","kind":"room","lv":";0;","minLevel":0},"geometry":{"type":"Point","coordinates":[2.3731273,48.8445723]}},{"type":"Feature","properties":{"name":"Hema","kind":"room","lv":";0;","minLevel":0},"geometry":{"type":"Point","coordinates":[2.3733456,48.8444113]}},{"type":"Feature","properties":{"name":"La Croissanterie","kind":"room","lv":";0;","minLevel":0},"geometry":{"type":"Point","coordinates":[2.376374,48.8442705]}},{"type":"Feature","properties":{"name":"Relay","kind":"room","lv":";0;","minLevel":0},"geometry":{"type":"Point","coordinates":[2.3765903,48.8443639]}},{"type":"Feature","properties":{"name":"Starbucks","kind":"room","lv":";0;","minLevel":0},"geometry":{"type":"Point","coordinates":[2.3764603,48.844281]}},{"type":"Feature","properties":{"name":"Fnac Paris - Gare de Lyon","kind":"room","lv":";1;","minLevel":1},"geometry":{"type":"Point","coordinates":[2.3749642,48.8446374]}},{"type":"Feature","properties":{"name":"Aux Merveilleux de Fred","kind":"room","lv":";1;","minLevel":1},"geometry":{"type":"Point","coordinates":[2.3751991,48.8445303]}},{"type":"Feature","properties":{"name":"Terrasse Montreux Jazz Caf\u00e9","kind":"area","lv":";1;","minLevel":1},"geometry":{"type":"Point","coordinates":[2.37347,48.8448162]}},{"type":"Feature","properties":{"name":"Le Train Bleu","kind":"room","lv":";2;","minLevel":2},"geometry":{"type":"Point","coordinates":[2.3733378,48.8449299]}},{"type":"Feature","properties":{"name":"Panier des Sens","kind":"room","lv":";1;","minLevel":1},"geometry":{"type":"Point","coordinates":[2.374411,48.8451547]}},{"type":"Feature","properties":{"name":"D\u00e9pot L\u00e9gal","kind":"room","lv":";1;","minLevel":1},"geometry":{"type":"Point","coordinates":[2.3752234,48.8447198]}},{"type":"Feature","properties":{"name":"Cojean","kind":"room","lv":";1;","minLevel":1},"geometry":{"type":"Point","coordinates":[2.3763337,48.8447815]}},{"type":"Feature","properties":{"name":"Roberta Caff\u00e8","kind":"room","lv":";1;","minLevel":1},"geometry":{"type":"Point","coordinates":[2.3760475,48.8449366]}},{"type":"Feature","properties":{"name":"Voies 1 et 3","kind":"platform","lv":";-3;","minLevel":-3},"geometry":{"type":"Point","coordinates":[2.3741555,48.8437616]}},{"type":"Feature","properties":{"name":"Voies 2 et 4","kind":"platform","lv":";-3;","minLevel":-3},"geometry":{"type":"Point","coordinates":[2.374001,48.8436117]}},{"type":"Feature","properties":{"name":"Agence Transilien","kind":"room","lv":";-2;","minLevel":-2},"geometry":{"type":"Point","coordinates":[2.3741651,48.8437335]}},{"type":"Feature","properties":{"name":"Columbus Caf\u00e9 & Co","kind":"room","lv":";-2;","minLevel":-2},"geometry":{"type":"Point","coordinates":[2.3734694,48.8440533]}},{"type":"Feature","properties":{"name":"Brioche Dor\u00e9e","kind":"room","lv":";-2;","minLevel":-2},"geometry":{"type":"Point","coordinates":[2.3745261,48.8434088]}},{"type":"Feature","properties":{"name":"Guichet RATP","kind":"room","lv":";-2;","minLevel":-2},"geometry":{"type":"Point","coordinates":[2.3740306,48.8435678]}},{"type":"Feature","properties":{"name":"Guichet Transilien","kind":"room","lv":";-2;","minLevel":-2},"geometry":{"type":"Point","coordinates":[2.3739603,48.8436666]}},{"type":"Feature","properties":{"name":"Relay","kind":"room","lv":";-2;","minLevel":-2},"geometry":{"type":"Point","coordinates":[2.3747096,48.8433195]}},{"type":"Feature","properties":{"name":"Relay","kind":"room","lv":";-2;","minLevel":-2},"geometry":{"type":"Point","coordinates":[2.3731135,48.8441774]}},{"type":"Feature","properties":{"name":"Adopt'","kind":"room","lv":";-2;","minLevel":-2},"geometry":{"type":"Point","coordinates":[2.3726685,48.8444784]}},{"type":"Feature","properties":{"name":"L\u2019Univers des marques","kind":"room","lv":";-2;","minLevel":-2},"geometry":{"type":"Point","coordinates":[2.3729571,48.8440248]}},{"type":"Feature","properties":{"name":"Bonne Journ\u00e9e","kind":"room","lv":";-2;","minLevel":-2},"geometry":{"type":"Point","coordinates":[2.3729484,48.8437839]}},{"type":"Feature","properties":{"name":"Eva accessoires","kind":"room","lv":";-2;","minLevel":-2},"geometry":{"type":"Point","coordinates":[2.3728234,48.844124]}},{"type":"Feature","properties":{"name":"\u00e0 Fleurs de pot","kind":"room","lv":";-2;","minLevel":-2},"geometry":{"type":"Point","coordinates":[2.372698,48.844265]}},{"type":"Feature","properties":{"name":"Cuir de Lyon","kind":"room","lv":";-2;","minLevel":-2},"geometry":{"type":"Point","coordinates":[2.372483,48.8441593]}},{"type":"Feature","properties":{"name":"Zone d'\u00e9change RER Galerie Diderot","kind":"area","lv":";-2;","minLevel":-2},"geometry":{"type":"Point","coordinates":[2.3729542,48.8444959]}},{"type":"Feature","properties":{"name":"Brioche Dor\u00e9e","kind":"room","lv":";0;","minLevel":0},"geometry":{"type":"Point","coordinates":[2.3758665,48.8440483]}},{"type":"Feature","properties":{"name":"Le caf\u00e9 sur l'herbe","kind":"room","lv":";0;","minLevel":0},"geometry":{"type":"Point","coordinates":[2.3747911,48.8434195]}},{"type":"Feature","properties":{"name":"Mezzo di Pasta","kind":"room","lv":";0;","minLevel":0},"geometry":{"type":"Point","coordinates":[2.3757101,48.8436713]}},{"type":"Feature","properties":{"name":"Relay","kind":"room","lv":";0;","minLevel":0},"geometry":{"type":"Point","coordinates":[2.3748667,48.8433822]}},{"type":"Feature","properties":{"name":"eat'Shop","kind":"room","lv":";0;","minLevel":0},"geometry":{"type":"Point","coordinates":[2.3758497,48.843786]}},{"type":"Feature","properties":{"name":"Paul","kind":"room","lv":";0;","minLevel":0},"geometry":{"type":"Point","coordinates":[2.3760216,48.8448999]}},{"type":"Feature","properties":{"name":"La Croissanterie","kind":"room","lv":";1;","minLevel":1},"geometry":{"type":"Point","coordinates":[2.3731054,48.8443461]}},{"type":"Feature","properties":{"name":"Pret A Manger","kind":"room","lv":";1;","minLevel":1},"geometry":{"type":"Point","coordinates":[2.3740428,48.8451979]}},{"type":"Feature","properties":{"name":"Relay","kind":"room","lv":";1;","minLevel":1},"geometry":{"type":"Point","coordinates":[2.3738409,48.8452026]}},{"type":"Feature","properties":{"name":"Moleskine","kind":"room","lv":";1;","minLevel":1},"geometry":{"type":"Point","coordinates":[2.3750683,48.8445977]}},{"type":"Feature","properties":{"name":"Maison Pradier","kind":"room","lv":";1;","minLevel":1},"geometry":{"type":"Point","coordinates":[2.3755672,48.8442574]}},{"type":"Feature","properties":{"name":"Monop Daily","kind":"room","lv":";1;","minLevel":1},"geometry":{"type":"Point","coordinates":[2.3760332,48.8447927]}},{"type":"Feature","properties":{"name":"Mezzanine","kind":"area","lv":";2;","minLevel":2},"geometry":{"type":"Point","coordinates":[2.3763,48.8447622]}},{"type":"Feature","properties":{"name":"Starbucks","kind":"room","lv":";2;","minLevel":2},"geometry":{"type":"Point","coordinates":[2.3760604,48.8448993]}},{"type":"Feature","properties":{"name":"2theloo","kind":"room","lv":";1;","minLevel":1},"geometry":{"type":"Point","coordinates":[2.3769096,48.8444584]}},{"type":"Feature","properties":{"name":"Paul","kind":"room","lv":";1;","minLevel":1},"geometry":{"type":"Point","coordinates":[2.3767185,48.8445667]}},{"type":"Feature","properties":{"name":"Le Bottier","kind":"room","lv":";-1;","minLevel":-1},"geometry":{"type":"Point","coordinates":[2.3740019,48.8452625]}},{"type":"Feature","properties":{"name":"Connexion espace RER - M\u00e9tro ligne 1","kind":"corridor","lv":";-1;","minLevel":-1},"geometry":{"type":"Point","coordinates":[2.3737572,48.8452643]}},{"type":"Feature","properties":{"name":"Le Labo","kind":"room","lv":";-1;","minLevel":-1},"geometry":{"type":"Point","coordinates":[2.3737835,48.8450253]}},{"type":"Feature","properties":{"name":"Presty Store","kind":"room","lv":";-1;","minLevel":-1},"geometry":{"type":"Point","coordinates":[2.3739834,48.8452079]}},{"type":"Feature","properties":{"name":"Presty Women","kind":"room","lv":";-1;","minLevel":-1},"geometry":{"type":"Point","coordinates":[2.3734118,48.8447415]}},{"type":"Feature","properties":{"name":"Shirel","kind":"room","lv":";-1;","minLevel":-1},"geometry":{"type":"Point","coordinates":[2.3738232,48.8456398]}},{"type":"Feature","properties":{"name":"Lovisa","kind":"room","lv":";-1;","minLevel":-1},"geometry":{"type":"Point","coordinates":[2.373614,48.8449205]}},{"type":"Feature","properties":{"name":"Pierre Herm\u00e9","kind":"room","lv":";1;","minLevel":1},"geometry":{"type":"Point","coordinates":[2.3742216,48.845019]}},{"type":"Feature","properties":{"name":"Will\u2019s","kind":"room","lv":";1;","minLevel":1},"geometry":{"type":"Point","coordinates":[2.3761057,48.8445335]}},{"type":"Feature","properties":{"name":"Potager de la Gare de Lyon","kind":"yes","lv":";0;","minLevel":0},"geometry":{"type":"Point","coordinates":[2.3771645,48.844392]}},{"type":"Feature","properties":{"name":"B","kind":"platform","lv":";1;","minLevel":1},"geometry":{"type":"Point","coordinates":[2.3750201,48.844456]}},{"type":"Feature","properties":{"name":"Voie 5","kind":"platform","lv":";1;","minLevel":1},"geometry":{"type":"Point","coordinates":[2.3773593,48.8431915]}},{"type":"Feature","properties":{"name":"Adopt'","kind":"room","lv":";0;","minLevel":0},"geometry":{"type":"Point","coordinates":[2.3730742,48.8444393]}},{"type":"Feature","properties":{"name":"Groot","kind":"room","lv":";1;","minLevel":1},"geometry":{"type":"Point","coordinates":[2.3758819,48.8446067]}},{"type":"Feature","properties":{"name":"Picto","kind":"room","lv":";0;","minLevel":0},"geometry":{"type":"Point","coordinates":[2.3763923,48.8444922]}},{"type":"Feature","properties":{"name":"Franprix","kind":"room","lv":";0;","minLevel":0},"geometry":{"type":"Point","coordinates":[2.3732199,48.8442685]}},{"type":"Feature","properties":{"name":"La Fabrique Cookies","kind":"room","lv":";0;","minLevel":0},"geometry":{"type":"Point","coordinates":[2.3730661,48.8446004]}},{"type":"Feature","properties":{"name":"Trenitalia","kind":"room","lv":";1;","minLevel":1},"geometry":{"type":"Point","coordinates":[2.3730351,48.8445428]}},{"type":"Feature","properties":{"name":"Big Fernand","kind":"room","lv":";1;","minLevel":1},"geometry":{"type":"Point","coordinates":[2.3730656,48.8447182]}},{"type":"Feature","properties":{"name":"Miniso","kind":"room","lv":";1;","minLevel":1},"geometry":{"type":"Point","coordinates":[2.3745423,48.8450945]}},{"type":"Feature","properties":{"name":"Salon Grand Voyageur","kind":"room","lv":";1;","minLevel":1},"geometry":{"type":"Point","coordinates":[2.3743044,48.8449967]}},{"type":"Feature","properties":{"name":"Ladur\u00e9e","kind":"room","lv":";1;","minLevel":1},"geometry":{"type":"Point","coordinates":[2.3751225,48.8446089]}},{"type":"Feature","properties":{"name":"Nespresso","kind":"room","lv":";1;","minLevel":1},"geometry":{"type":"Point","coordinates":[2.3749889,48.844866]}},{"type":"Feature","properties":{"name":"Cluizel","kind":"room","lv":";1;","minLevel":1},"geometry":{"type":"Point","coordinates":[2.3747816,48.845028]}},{"type":"Feature","properties":{"name":"Izipizi","kind":"room","lv":";1;","minLevel":1},"geometry":{"type":"Point","coordinates":[2.3746743,48.8450273]}},{"type":"Feature","properties":{"name":"Momen'Tea","kind":"room","lv":";0;","minLevel":0},"geometry":{"type":"Point","coordinates":[2.3739143,48.8453611]}},{"type":"Feature","properties":{"name":"Brioche Dor\u00e9e","kind":"room","lv":";0;","minLevel":0},"geometry":{"type":"Point","coordinates":[2.3740887,48.8452862]}},{"type":"Feature","properties":{"name":"Hoppy Brasserie","kind":"room","lv":";2;","minLevel":2},"geometry":{"type":"Point","coordinates":[2.3759209,48.8448172]}},{"type":"Feature","properties":{"name":"Millie's Cookies","kind":"room","lv":";1;","minLevel":1},"geometry":{"type":"Point","coordinates":[2.3730319,48.8446568]}},{"type":"Feature","properties":{"name":"M\u00e9tro 14","kind":"yes","lv":";-5;","minLevel":-5},"geometry":{"type":"Point","coordinates":[2.3612765,48.8508049]}},{"type":"Feature","properties":{"name":"M\u00e9tro 14","kind":"yes","lv":";-5;","minLevel":-5},"geometry":{"type":"Point","coordinates":[2.3612939,48.8508187]}},{"type":"Feature","properties":{"name":"Salon Grand Voyageur","kind":"room","lv":";2;","minLevel":2},"geometry":{"type":"Point","coordinates":[2.3742169,48.8449996]}},{"type":"Feature","properties":{"name":"Assistance voyageur handicap\u00e9","kind":"room","lv":";1;","minLevel":1},"geometry":{"type":"Point","coordinates":[2.3728904,48.8444368]}},{"type":"Feature","properties":{"name":"IJO","kind":"room","lv":";0;","minLevel":0},"geometry":{"type":"Point","coordinates":[2.3736345,48.8447663]}},{"type":"Feature","properties":{"name":"Boutique Grandes Lignes","kind":"room","lv":";1;","minLevel":1},"geometry":{"type":"Point","coordinates":[2.3745987,48.8448414]}}]}